start=new Date('2022-01-31T00:00:00.000Z').valueOf();
sats=[{"TLE_LINE2":"2 46352  53.0538 244.9332 0001605  73.6068 286.5098 15.06392768 78690","REV_AT_EPOCH":"7869","COUNTRY_CODE":"US","SEMIMAJOR_AXIS":"6925.371","NORAD_CAT_ID":"46352","MEAN_ELEMENT_THEORY":"SGP4","BSTAR":"0.00015293000000","ELEMENT_SET_NO":"999","ECCENTRICITY":"0.00016050","EPOCH":"2022-01-30T21:38:18.097440","INCLINATION":"53.0538","RA_OF_ASC_NODE":"244.9332","DECAY_DATE":null,"TIME_SYSTEM":"UTC","APOAPSIS":"548.347","ARG_OF_PERICENTER":"73.6068","EPHEMERIS_TYPE":"0","GP_ID":"194982026","SITE":"AFETR","MEAN_MOTION_DOT":"0.00001997","PERIAPSIS":"546.124","MEAN_MOTION":"15.06392768","REF_FRAME":"TEME","CENTER_NAME":"EARTH","OBJECT_TYPE":"PAYLOAD","OBJECT_ID":"2020-062AD","MEAN_ANOMALY":"286.5098","RCS_SIZE":"LARGE","OBJECT_NAME":"STARLINK-1653","FILE":"3287903","PERIOD":"95.593","TLE_LINE1":"1 46352U 20062AD  22030.90159835  .00001997  00000-0  15293-3 0  9996","LAUNCH_DATE":"2020-09-03","CLASSIFICATION_TYPE":"U","MEAN_MOTION_DDOT":"0.0000000000000"},{"MEAN_MOTION_DOT":"0.00001326","GP_ID":"194982276","SITE":"AFETR","DECAY_DATE":null,"APOAPSIS":"548.442","ARG_OF_PERICENTER":"67.7851","EPHEMERIS_TYPE":"0","TIME_SYSTEM":"UTC","INCLINATION":"53.0540","RA_OF_ASC_NODE":"264.9543","EPOCH":"2022-01-30T21:35:38.292000","BSTAR":"0.00010792000000","ELEMENT_SET_NO":"999","ECCENTRICITY":"0.00017680","SEMIMAJOR_AXIS":"6925.352","NORAD_CAT_ID":"46353","MEAN_ELEMENT_THEORY":"SGP4","COUNTRY_CODE":"US","TLE_LINE2":"2 46353  53.0540 264.9543 0001768  67.7851 292.3326 15.06398744 78402","REV_AT_EPOCH":"7840","MEAN_MOTION_DDOT":"0.0000000000000","CLASSIFICATION_TYPE":"U","LAUNCH_DATE":"2020-09-03","FILE":"3287903","OBJECT_NAME":"STARLINK-1656","TLE_LINE1":"1 46353U 20062AE  22030.89974875  .00001326  00000-0  10792-3 0  9999","PERIOD":"95.592","RCS_SIZE":"LARGE","OBJECT_ID":"2020-062AE","MEAN_ANOMALY":"292.3326","REF_FRAME":"TEME","OBJECT_TYPE":"PAYLOAD","CENTER_NAME":"EARTH","PERIAPSIS":"545.993","MEAN_MOTION":"15.06398744"},{"CLASSIFICATION_TYPE":"U","MEAN_MOTION_DDOT":"0.0000000000000","LAUNCH_DATE":"2020-09-03","RCS_SIZE":"LARGE","MEAN_ANOMALY":"291.2743","OBJECT_ID":"2020-062AF","FILE":"3287903","OBJECT_NAME":"STARLINK-1657","TLE_LINE1":"1 46354U 20062AF  22030.88868363  .00002554  00000-0  19033-3 0  9994","PERIOD":"95.592","MEAN_MOTION":"15.06397611","PERIAPSIS":"545.924","REF_FRAME":"TEME","OBJECT_TYPE":"PAYLOAD","CENTER_NAME":"EARTH","GP_ID":"194983028","SITE":"AFETR","MEAN_MOTION_DOT":"0.00002554","RA_OF_ASC_NODE":"264.9891","INCLINATION":"53.0538","DECAY_DATE":null,"APOAPSIS":"548.518","EPHEMERIS_TYPE":"0","ARG_OF_PERICENTER":"68.8446","TIME_SYSTEM":"UTC","BSTAR":"0.00019033000000","ECCENTRICITY":"0.00018730","ELEMENT_SET_NO":"999","SEMIMAJOR_AXIS":"6925.356","NORAD_CAT_ID":"46354","MEAN_ELEMENT_THEORY":"SGP4","EPOCH":"2022-01-30T21:19:42.265632","COUNTRY_CODE":"US","TLE_LINE2":"2 46354  53.0538 264.9891 0001873  68.8446 291.2743 15.06397611 78408","REV_AT_EPOCH":"7840"},{"COUNTRY_CODE":"US","REV_AT_EPOCH":"7841","TLE_LINE2":"2 46355  53.0535 264.8166 0001761  74.6039 285.5144 15.06403540 78410","EPOCH":"2022-01-30T22:18:05.081472","ECCENTRICITY":"0.00017610","BSTAR":"0.00017492000000","ELEMENT_SET_NO":"999","SEMIMAJOR_AXIS":"6925.338","NORAD_CAT_ID":"46355","MEAN_ELEMENT_THEORY":"SGP4","ARG_OF_PERICENTER":"74.6039","APOAPSIS":"548.422","EPHEMERIS_TYPE":"0","TIME_SYSTEM":"UTC","DECAY_DATE":null,"RA_OF_ASC_NODE":"264.8166","INCLINATION":"53.0535","MEAN_MOTION_DOT":"0.00002325","SITE":"AFETR","GP_ID":"194983778","OBJECT_TYPE":"PAYLOAD","CENTER_NAME":"EARTH","REF_FRAME":"TEME","PERIAPSIS":"545.983","MEAN_MOTION":"15.06403540","TLE_LINE1":"1 46355U 20062AG  22030.92922548  .00002325  00000-0  17492-3 0  9999","PERIOD":"95.592","FILE":"3287903","OBJECT_NAME":"STARLINK-1661","RCS_SIZE":"LARGE","MEAN_ANOMALY":"285.5144","OBJECT_ID":"2020-062AG","LAUNCH_DATE":"2020-09-03","MEAN_MOTION_DDOT":"0.0000000000000","CLASSIFICATION_TYPE":"U"},{"TLE_LINE2":"2 46356  53.0522 264.7669 0001755  71.1920 288.9260 15.06387083 78417","REV_AT_EPOCH":"7841","COUNTRY_CODE":"US","EPOCH":"2022-01-30T22:34:00.978240","NORAD_CAT_ID":"46356","SEMIMAJOR_AXIS":"6925.388","MEAN_ELEMENT_THEORY":"SGP4","ECCENTRICITY":"0.00017550","BSTAR":"-0.00005573900000","ELEMENT_SET_NO":"999","TIME_SYSTEM":"UTC","APOAPSIS":"548.469","ARG_OF_PERICENTER":"71.1920","EPHEMERIS_TYPE":"0","DECAY_DATE":null,"INCLINATION":"53.0522","RA_OF_ASC_NODE":"264.7669","MEAN_MOTION_DOT":"-0.00001111","SITE":"AFETR","GP_ID":"194982526","CENTER_NAME":"EARTH","OBJECT_TYPE":"PAYLOAD","REF_FRAME":"TEME","PERIAPSIS":"546.038","MEAN_MOTION":"15.06387083","PERIOD":"95.593","TLE_LINE1":"1 46356U 20062AH  22030.94028910 -.00001111  00000-0 -55739-4 0  9993","OBJECT_NAME":"STARLINK-1665","FILE":"3287903","OBJECT_ID":"2020-062AH","MEAN_ANOMALY":"288.9260","RCS_SIZE":"LARGE","LAUNCH_DATE":"2020-09-03","MEAN_MOTION_DDOT":"0.0000000000000","CLASSIFICATION_TYPE":"U"},{"CLASSIFICATION_TYPE":"U","MEAN_MOTION_DDOT":"0.0000000000000","LAUNCH_DATE":"2020-09-03","RCS_SIZE":"LARGE","MEAN_ANOMALY":"290.7297","OBJECT_ID":"2020-062AJ","FILE":"3287903","OBJECT_NAME":"STARLINK-1666","TLE_LINE1":"1 46357U 20062AJ  22030.87209440  .00001721  00000-0  13441-3 0  9993","PERIOD":"95.592","PERIAPSIS":"545.956","MEAN_MOTION":"15.06401467","REF_FRAME":"TEME","OBJECT_TYPE":"PAYLOAD","CENTER_NAME":"EARTH","GP_ID":"194982776","SITE":"AFETR","MEAN_MOTION_DOT":"0.00001721","RA_OF_ASC_NODE":"245.0797","INCLINATION":"53.0531","DECAY_DATE":null,"ARG_OF_PERICENTER":"69.3885","APOAPSIS":"548.462","EPHEMERIS_TYPE":"0","TIME_SYSTEM":"UTC","ECCENTRICITY":"0.00018090","BSTAR":"0.00013441000000","ELEMENT_SET_NO":"999","NORAD_CAT_ID":"46357","SEMIMAJOR_AXIS":"6925.344","MEAN_ELEMENT_THEORY":"SGP4","EPOCH":"2022-01-30T20:55:48.956160","COUNTRY_CODE":"US","REV_AT_EPOCH":"7868","TLE_LINE2":"2 46357  53.0531 245.0797 0001809  69.3885 290.7297 15.06401467 78684"},{"NORAD_CAT_ID":"46358","SEMIMAJOR_AXIS":"6925.336","MEAN_ELEMENT_THEORY":"SGP4","ELEMENT_SET_NO":"999","BSTAR":"0.00008635700000","ECCENTRICITY":"0.00018310","EPOCH":"2022-01-30T22:02:09.836160","REV_AT_EPOCH":"7841","TLE_LINE2":"2 46358  53.0536 264.8582 0001831  72.4367 287.6822 15.06404200 78414","COUNTRY_CODE":"US","GP_ID":"194983528","SITE":"AFETR","MEAN_MOTION_DOT":"0.00001005","RA_OF_ASC_NODE":"264.8582","INCLINATION":"53.0536","DECAY_DATE":null,"TIME_SYSTEM":"UTC","APOAPSIS":"548.469","EPHEMERIS_TYPE":"0","ARG_OF_PERICENTER":"72.4367","MEAN_ANOMALY":"287.6822","OBJECT_ID":"2020-062AK","RCS_SIZE":"LARGE","OBJECT_NAME":"STARLINK-1690","FILE":"3287903","PERIOD":"95.592","TLE_LINE1":"1 46358U 20062AK  22030.91816940  .00001005  00000-0  86357-4 0  9990","PERIAPSIS":"545.933","MEAN_MOTION":"15.06404200","REF_FRAME":"TEME","CENTER_NAME":"EARTH","OBJECT_TYPE":"PAYLOAD","CLASSIFICATION_TYPE":"U","MEAN_MOTION_DDOT":"0.0000000000000","LAUNCH_DATE":"2020-09-03"},{"MEAN_MOTION":"15.06390164","PERIAPSIS":"545.877","OBJECT_TYPE":"PAYLOAD","CENTER_NAME":"EARTH","REF_FRAME":"TEME","RCS_SIZE":"LARGE","OBJECT_ID":"2020-062AL","MEAN_ANOMALY":"293.4857","PERIOD":"95.593","TLE_LINE1":"1 46359U 20062AL  22030.89838088  .00001286  00000-0  10526-3 0  9990","FILE":"3287903","OBJECT_NAME":"STARLINK-1707","LAUNCH_DATE":"2020-09-03","CLASSIFICATION_TYPE":"U","MEAN_MOTION_DDOT":"0.0000000000000","COUNTRY_CODE":"US","REV_AT_EPOCH":"7903","TLE_LINE2":"2 46359  53.0528 219.9590 0001973  66.6339 293.4857 15.06390164 79032","BSTAR":"0.00010526000000","ELEMENT_SET_NO":"999","ECCENTRICITY":"0.00019730","SEMIMAJOR_AXIS":"6925.379","NORAD_CAT_ID":"46359","MEAN_ELEMENT_THEORY":"SGP4","EPOCH":"2022-01-30T21:33:40.108032","RA_OF_ASC_NODE":"219.9590","INCLINATION":"53.0528","APOAPSIS":"548.610","ARG_OF_PERICENTER":"66.6339","EPHEMERIS_TYPE":"0","TIME_SYSTEM":"UTC","DECAY_DATE":null,"SITE":"AFETR","GP_ID":"194983279","MEAN_MOTION_DOT":"0.00001286"},{"LAUNCH_DATE":"2020-09-03","MEAN_MOTION_DDOT":"0.0000000000000","CLASSIFICATION_TYPE":"U","CENTER_NAME":"EARTH","OBJECT_TYPE":"PAYLOAD","REF_FRAME":"TEME","MEAN_MOTION":"15.06397988","PERIAPSIS":"545.913","TLE_LINE1":"1 46360U 20062AM  22030.85413880 -.00000528  00000-0 -16506-4 0  9992","PERIOD":"95.592","OBJECT_NAME":"STARLINK-1713","FILE":"3287903","OBJECT_ID":"2020-062AM","MEAN_ANOMALY":"293.2104","RCS_SIZE":"LARGE","TIME_SYSTEM":"UTC","ARG_OF_PERICENTER":"66.9084","APOAPSIS":"548.527","EPHEMERIS_TYPE":"0","DECAY_DATE":null,"INCLINATION":"53.0538","RA_OF_ASC_NODE":"220.1597","MEAN_MOTION_DOT":"-0.00000528","SITE":"AFETR","GP_ID":"194982027","REV_AT_EPOCH":"7903","TLE_LINE2":"2 46360  53.0538 220.1597 0001887  66.9084 293.2104 15.06397988 79034","COUNTRY_CODE":"US","EPOCH":"2022-01-30T20:29:57.592320","SEMIMAJOR_AXIS":"6925.355","MEAN_ELEMENT_THEORY":"SGP4","NORAD_CAT_ID":"46360","BSTAR":"-0.00001650600000","ELEMENT_SET_NO":"999","ECCENTRICITY":"0.00018870"},{"LAUNCH_DATE":"2020-09-03","MEAN_MOTION_DDOT":"0.0000000000000","CLASSIFICATION_TYPE":"U","REF_FRAME":"TEME","CENTER_NAME":"EARTH","OBJECT_TYPE":"PAYLOAD","PERIAPSIS":"545.955","MEAN_MOTION":"15.06394494","OBJECT_NAME":"STARLINK-1722","FILE":"3287903","TLE_LINE1":"1 46361U 20062AN  22030.89099810 -.00000296  00000-0 -97265-6 0  9995","PERIOD":"95.592","MEAN_ANOMALY":"281.6983","OBJECT_ID":"2020-062AN","RCS_SIZE":"LARGE","DECAY_DATE":null,"TIME_SYSTEM":"UTC","APOAPSIS":"548.505","ARG_OF_PERICENTER":"78.4213","EPHEMERIS_TYPE":"0","RA_OF_ASC_NODE":"219.9979","INCLINATION":"53.0544","MEAN_MOTION_DOT":"-0.00000296","GP_ID":"194982277","SITE":"AFETR","REV_AT_EPOCH":"7903","TLE_LINE2":"2 46361  53.0544 219.9979 0001841  78.4213 281.6983 15.06394494 79039","COUNTRY_CODE":"US","EPOCH":"2022-01-30T21:23:02.235840","NORAD_CAT_ID":"46361","SEMIMAJOR_AXIS":"6925.365","MEAN_ELEMENT_THEORY":"SGP4","BSTAR":"-0.00000097265000","ECCENTRICITY":"0.00018410","ELEMENT_SET_NO":"999"}];
